{"fetched_at":"2026-03-29T16:36:15Z","count":15609,"tles":[{"name":"STARLINK-36137","line1":"1 67033U 25294D   26087.91688655  .00022234  00000+0  81457-3 0  9992","line2":"2 67033  43.0022 289.1582 0001999 264.7687  95.2936 15.27598936 17743","category":"Starlink"}]}